[{"OBJECT_NAME":"STARLINK-4487","OBJECT_ID":"2022-101E","EPOCH":"2026-03-09T07:18:57.293856","MEAN_MOTION":15.08838884,"ECCENTRICITY":0.00012542,"INCLINATION":53.2164,"RA_OF_ASC_NODE":75.8484,"ARG_OF_PERICENTER":88.8542,"MEAN_ANOMALY":271.2593,"EPHEMERIS_TYPE":0,"CLASSIFICATION_TYPE":"U","NORAD_CAT_ID":53531,"ELEMENT_SET_NO":999,"REV_AT_EPOCH":19610,"BSTAR":-1.7717794e-5,"MEAN_MOTION_DOT":-5.7e-6,"MEAN_MOTION_DDOT":0},{"OBJECT_NAME":"CZ-4B DEB","OBJECT_ID":"2004-035J","EPOCH":"2026-03-07T20:16:16.859712","MEAN_MOTION":15.09572175,"ECCENTRICITY":0.00105031,"INCLINATION":97.5432,"RA_OF_ASC_NODE":82.067,"ARG_OF_PERICENTER":356.2804,"MEAN_ANOMALY":3.8346,"EPHEMERIS_TYPE":0,"CLASSIFICATION_TYPE":"U","NORAD_CAT_ID":29042,"ELEMENT_SET_NO":999,"REV_AT_EPOCH":69625,"BSTAR":0.00031812935,"MEAN_MOTION_DOT":5.052e-5,"MEAN_MOTION_DDOT":0}]
